start=new Date('2021-12-23T00:00:00.000Z').valueOf();
sats=[{"INCLINATION":"53.2176","CENTER_NAME":"EARTH","LAUNCH_DATE":"2021-11-13","TIME_SYSTEM":"UTC","SITE":"AFETR","DECAY_DATE":null,"EPOCH":"2021-12-22T20:00:01.000224","MEAN_ELEMENT_THEORY":"SGP4","TLE_LINE2":"2 49434  53.2176 299.0750 0001205  74.3720 211.2299 15.59525395  7454","APOAPSIS":"389.847","MEAN_MOTION_DOT":"-0.00655644","REV_AT_EPOCH":"745","OBJECT_TYPE":"PAYLOAD","ECCENTRICITY":"0.00012050","SEMIMAJOR_AXIS":"6767.167","OBJECT_NAME":"STARLINK-3134","RA_OF_ASC_NODE":"299.0750","FILE":"3247712","MEAN_MOTION":"15.59525395","NORAD_CAT_ID":"49434","PERIOD":"92.336","MEAN_ANOMALY":"211.2299","CLASSIFICATION_TYPE":"U","COUNTRY_CODE":"US","OBJECT_ID":"2021-104AC","ELEMENT_SET_NO":"999","ARG_OF_PERICENTER":"74.3720","EPHEMERIS_TYPE":"0","PERIAPSIS":"388.216","RCS_SIZE":"LARGE","REF_FRAME":"TEME","TLE_LINE1":"1 49434U 21104AC  21356.83334491 -.00655644  00000-0 -87872-2 0  9990","MEAN_MOTION_DDOT":"0.0000000000000","BSTAR":"-0.00878720000000","GP_ID":"192225856"},{"NORAD_CAT_ID":"49435","PERIOD":"91.536","MEAN_MOTION":"15.73148848","FILE":"3247523","RA_OF_ASC_NODE":"299.7429","COUNTRY_CODE":"US","CLASSIFICATION_TYPE":"U","MEAN_ANOMALY":"177.1051","RCS_SIZE":"LARGE","PERIAPSIS":"348.782","ARG_OF_PERICENTER":"29.0435","EPHEMERIS_TYPE":"0","OBJECT_ID":"2021-104AD","ELEMENT_SET_NO":"999","GP_ID":"192219657","BSTAR":"0.00036774000000","MEAN_MOTION_DDOT":"0.0000000000000","TLE_LINE1":"1 49435U 21104AD  21356.58334491  .00051192  00000-0  36774-3 0  9995","REF_FRAME":"TEME","TIME_SYSTEM":"UTC","LAUNCH_DATE":"2021-11-13","CENTER_NAME":"EARTH","INCLINATION":"53.2173","MEAN_ELEMENT_THEORY":"SGP4","EPOCH":"2021-12-22T14:00:01.000224","DECAY_DATE":null,"SITE":"AFETR","OBJECT_TYPE":"PAYLOAD","ECCENTRICITY":"0.00016710","REV_AT_EPOCH":"368","MEAN_MOTION_DOT":"0.00051192","APOAPSIS":"351.030","TLE_LINE2":"2 49435  53.2173 299.7429 0001671  29.0435 177.1051 15.73148848  3686","OBJECT_NAME":"STARLINK-3117","SEMIMAJOR_AXIS":"6728.041"},{"PERIAPSIS":"348.175","EPHEMERIS_TYPE":"0","ARG_OF_PERICENTER":"22.8032","RCS_SIZE":"LARGE","OBJECT_ID":"2021-104AE","ELEMENT_SET_NO":"999","MEAN_MOTION_DDOT":"0.0000000000000","TLE_LINE1":"1 49436U 21104AE  21356.58334491 -.00055117  00000-0 -39080-3 0  9992","GP_ID":"192220293","BSTAR":"-0.00039080000000","REF_FRAME":"TEME","MEAN_MOTION":"15.73200052","PERIOD":"91.533","NORAD_CAT_ID":"49436","RA_OF_ASC_NODE":"299.7711","FILE":"3247523","CLASSIFICATION_TYPE":"U","COUNTRY_CODE":"US","MEAN_ANOMALY":"170.1932","REV_AT_EPOCH":"368","OBJECT_TYPE":"PAYLOAD","ECCENTRICITY":"0.00023560","APOAPSIS":"351.345","TLE_LINE2":"2 49436  53.2175 299.7711 0002356  22.8032 170.1932 15.73200052  3685","MEAN_MOTION_DOT":"-0.00055117","OBJECT_NAME":"STARLINK-3049","SEMIMAJOR_AXIS":"6727.895","CENTER_NAME":"EARTH","LAUNCH_DATE":"2021-11-13","TIME_SYSTEM":"UTC","INCLINATION":"53.2175","MEAN_ELEMENT_THEORY":"SGP4","SITE":"AFETR","EPOCH":"2021-12-22T14:00:01.000224","DECAY_DATE":null},{"OBJECT_NAME":"STARLINK-3130","SEMIMAJOR_AXIS":"6727.977","ECCENTRICITY":"0.00023680","OBJECT_TYPE":"PAYLOAD","REV_AT_EPOCH":"746","MEAN_MOTION_DOT":"0.00071936","APOAPSIS":"351.436","TLE_LINE2":"2 49437  53.2172 298.5257 0002368  24.3847 148.0892 15.73171189  7466","MEAN_ELEMENT_THEORY":"SGP4","EPOCH":"2021-12-22T20:00:01.000224","DECAY_DATE":null,"SITE":"AFETR","TIME_SYSTEM":"UTC","LAUNCH_DATE":"2021-11-13","CENTER_NAME":"EARTH","INCLINATION":"53.2172","GP_ID":"192225932","BSTAR":"0.00051318000000","MEAN_MOTION_DDOT":"0.0000000000000","TLE_LINE1":"1 49437U 21104AF  21356.83334491  .00071936  00000-0  51318-3 0  9994","REF_FRAME":"TEME","RCS_SIZE":"LARGE","PERIAPSIS":"348.249","ARG_OF_PERICENTER":"24.3847","EPHEMERIS_TYPE":"0","OBJECT_ID":"2021-104AF","ELEMENT_SET_NO":"999","COUNTRY_CODE":"US","CLASSIFICATION_TYPE":"U","MEAN_ANOMALY":"148.0892","NORAD_CAT_ID":"49437","PERIOD":"91.535","MEAN_MOTION":"15.73171189","FILE":"3247732","RA_OF_ASC_NODE":"298.5257"},{"PERIOD":"91.531","NORAD_CAT_ID":"49438","MEAN_MOTION":"15.73230071","FILE":"3247759","RA_OF_ASC_NODE":"298.5223","COUNTRY_CODE":"US","CLASSIFICATION_TYPE":"U","MEAN_ANOMALY":"147.0592","RCS_SIZE":"LARGE","PERIAPSIS":"348.159","EPHEMERIS_TYPE":"0","ARG_OF_PERICENTER":"26.3862","OBJECT_ID":"2021-104AG","ELEMENT_SET_NO":"999","GP_ID":"192226476","BSTAR":"-0.00018799000000","MEAN_MOTION_DDOT":"0.0000000000000","TLE_LINE1":"1 49438U 21104AG  21356.83334491 -.00026957  00000-0 -18799-3 0  9996","REF_FRAME":"TEME","TIME_SYSTEM":"UTC","LAUNCH_DATE":"2021-11-13","CENTER_NAME":"EARTH","INCLINATION":"53.2171","MEAN_ELEMENT_THEORY":"SGP4","EPOCH":"2021-12-22T20:00:01.000224","DECAY_DATE":null,"SITE":"AFETR","ECCENTRICITY":"0.00022530","OBJECT_TYPE":"PAYLOAD","REV_AT_EPOCH":"746","MEAN_MOTION_DOT":"-0.00026957","APOAPSIS":"351.190","TLE_LINE2":"2 49438  53.2171 298.5223 0002253  26.3862 147.0592 15.73230071  7463","OBJECT_NAME":"STARLINK-3044","SEMIMAJOR_AXIS":"6727.809"},{"SITE":"AFETR","EPOCH":"2021-12-22T14:00:01.000224","DECAY_DATE":null,"MEAN_ELEMENT_THEORY":"SGP4","INCLINATION":"53.2174","CENTER_NAME":"EARTH","LAUNCH_DATE":"2021-11-13","TIME_SYSTEM":"UTC","SEMIMAJOR_AXIS":"6727.886","OBJECT_NAME":"STARLINK-3108","APOAPSIS":"351.402","TLE_LINE2":"2 49439  53.2174 299.7524 0002454  15.5063 185.9183 15.73203065  3680","MEAN_MOTION_DOT":"0.00025756","REV_AT_EPOCH":"368","ECCENTRICITY":"0.00024540","OBJECT_TYPE":"PAYLOAD","MEAN_ANOMALY":"185.9183","CLASSIFICATION_TYPE":"U","COUNTRY_CODE":"US","RA_OF_ASC_NODE":"299.7524","FILE":"3247523","MEAN_MOTION":"15.73203065","PERIOD":"91.533","NORAD_CAT_ID":"49439","REF_FRAME":"TEME","MEAN_MOTION_DDOT":"0.0000000000000","TLE_LINE1":"1 49439U 21104AH  21356.58334491  .00025756  00000-0  18733-3 0  9991","GP_ID":"192220082","BSTAR":"0.00018733000000","ELEMENT_SET_NO":"999","OBJECT_ID":"2021-104AH","PERIAPSIS":"348.100","ARG_OF_PERICENTER":"15.5063","EPHEMERIS_TYPE":"0","RCS_SIZE":"LARGE"},{"COUNTRY_CODE":"US","CLASSIFICATION_TYPE":"U","MEAN_ANOMALY":"135.5099","PERIOD":"91.533","NORAD_CAT_ID":"49440","MEAN_MOTION":"15.73203502","FILE":"3247720","RA_OF_ASC_NODE":"298.5215","GP_ID":"192225495","BSTAR":"0.00050991000000","MEAN_MOTION_DDOT":"0.0000000000000","TLE_LINE1":"1 49440U 21104AJ  21356.83334491  .00071569  00000-0  50991-3 0  9996","REF_FRAME":"TEME","RCS_SIZE":"LARGE","PERIAPSIS":"348.222","EPHEMERIS_TYPE":"0","ARG_OF_PERICENTER":"38.8217","OBJECT_ID":"2021-104AJ","ELEMENT_SET_NO":"999","MEAN_ELEMENT_THEORY":"SGP4","EPOCH":"2021-12-22T20:00:01.000224","DECAY_DATE":null,"SITE":"AFETR","TIME_SYSTEM":"UTC","LAUNCH_DATE":"2021-11-13","CENTER_NAME":"EARTH","INCLINATION":"53.2172","OBJECT_NAME":"STARLINK-3105","SEMIMAJOR_AXIS":"6727.885","ECCENTRICITY":"0.00022720","OBJECT_TYPE":"PAYLOAD","REV_AT_EPOCH":"746","MEAN_MOTION_DOT":"0.00071569","APOAPSIS":"351.279","TLE_LINE2":"2 49440  53.2172 298.5215 0002272  38.8217 135.5099 15.73203502  7464"},{"REV_AT_EPOCH":"747","OBJECT_TYPE":"PAYLOAD","ECCENTRICITY":"0.00021290","APOAPSIS":"351.301","TLE_LINE2":"2 49441  53.2181 298.5167 0002129  25.0001 154.0279 15.73161953  7471","MEAN_MOTION_DOT":"0.00071017","OBJECT_NAME":"STARLINK-3128","SEMIMAJOR_AXIS":"6728.004","CENTER_NAME":"EARTH","LAUNCH_DATE":"2021-11-13","TIME_SYSTEM":"UTC","INCLINATION":"53.2181","MEAN_ELEMENT_THEORY":"SGP4","SITE":"AFETR","EPOCH":"2021-12-22T20:00:01.000224","DECAY_DATE":null,"PERIAPSIS":"348.436","EPHEMERIS_TYPE":"0","ARG_OF_PERICENTER":"25.0001","RCS_SIZE":"LARGE","OBJECT_ID":"2021-104AK","ELEMENT_SET_NO":"999","MEAN_MOTION_DDOT":"0.0000000000000","TLE_LINE1":"1 49441U 21104AK  21356.83334491  .00071017  00000-0  50695-3 0  9996","GP_ID":"192225992","BSTAR":"0.00050695000000","REF_FRAME":"TEME","MEAN_MOTION":"15.73161953","PERIOD":"91.535","NORAD_CAT_ID":"49441","RA_OF_ASC_NODE":"298.5167","FILE":"3247733","CLASSIFICATION_TYPE":"U","COUNTRY_CODE":"US","MEAN_ANOMALY":"154.0279"},{"OBJECT_ID":"2021-104AL","ELEMENT_SET_NO":"999","PERIAPSIS":"348.143","ARG_OF_PERICENTER":"28.6755","EPHEMERIS_TYPE":"0","RCS_SIZE":"LARGE","REF_FRAME":"TEME","MEAN_MOTION_DDOT":"0.0000000000000","TLE_LINE1":"1 49442U 21104AL  21356.83334491 -.00052314  00000-0 -36995-3 0  9995","GP_ID":"192225518","BSTAR":"-0.00036995000000","RA_OF_ASC_NODE":"298.5241","FILE":"3247721","MEAN_MOTION":"15.73239664","PERIOD":"91.531","NORAD_CAT_ID":"49442","MEAN_ANOMALY":"146.6347","CLASSIFICATION_TYPE":"U","COUNTRY_CODE":"US","APOAPSIS":"351.151","TLE_LINE2":"2 49442  53.2180 298.5241 0002235  28.6755 146.6347 15.73239664  7475","MEAN_MOTION_DOT":"-0.00052314","REV_AT_EPOCH":"747","ECCENTRICITY":"0.00022350","OBJECT_TYPE":"PAYLOAD","SEMIMAJOR_AXIS":"6727.782","OBJECT_NAME":"STARLINK-3098","INCLINATION":"53.2180","CENTER_NAME":"EARTH","LAUNCH_DATE":"2021-11-13","TIME_SYSTEM":"UTC","SITE":"AFETR","EPOCH":"2021-12-22T20:00:01.000224","DECAY_DATE":null,"MEAN_ELEMENT_THEORY":"SGP4"},{"MEAN_MOTION":"15.73235786","NORAD_CAT_ID":"49443","PERIOD":"91.531","RA_OF_ASC_NODE":"298.5113","FILE":"3247721","CLASSIFICATION_TYPE":"U","COUNTRY_CODE":"US","MEAN_ANOMALY":"149.9571","PERIAPSIS":"348.166","EPHEMERIS_TYPE":"0","ARG_OF_PERICENTER":"30.0347","RCS_SIZE":"LARGE","OBJECT_ID":"2021-104AM","ELEMENT_SET_NO":"999","MEAN_MOTION_DDOT":"0.0000000000000","TLE_LINE1":"1 49443U 21104AM  21356.83334491 -.00025175  00000-0 -17519-3 0  9992","GP_ID":"192226001","BSTAR":"-0.00017519000000","REF_FRAME":"TEME","CENTER_NAME":"EARTH","LAUNCH_DATE":"2021-11-13","TIME_SYSTEM":"UTC","INCLINATION":"53.2176","MEAN_ELEMENT_THEORY":"SGP4","SITE":"AFETR","EPOCH":"2021-12-22T20:00:01.000224","DECAY_DATE":null,"REV_AT_EPOCH":"746","ECCENTRICITY":"0.00022180","OBJECT_TYPE":"PAYLOAD","APOAPSIS":"351.150","TLE_LINE2":"2 49443  53.2176 298.5113 0002218  30.0347 149.9571 15.73235786  7469","MEAN_MOTION_DOT":"-0.00025175","OBJECT_NAME":"STARLINK-3136","SEMIMAJOR_AXIS":"6727.793"}];
